[{"OBJECT_NAME":"STARLINK-34460","OBJECT_ID":"2025-236P","EPOCH":"2026-03-09T09:26:12.759072","MEAN_MOTION":15.30192746,"ECCENTRICITY":0.00013666,"INCLINATION":53.1578,"RA_OF_ASC_NODE":104.9334,"ARG_OF_PERICENTER":59.2277,"MEAN_ANOMALY":300.8858,"EPHEMERIS_TYPE":0,"CLASSIFICATION_TYPE":"U","NORAD_CAT_ID":66099,"ELEMENT_SET_NO":999,"REV_AT_EPOCH":2290,"BSTAR":0.00045447684,"MEAN_MOTION_DOT":0.00013122,"MEAN_MOTION_DDOT":0},{"OBJECT_NAME":"CZ-2C R\/B","OBJECT_ID":"2024-007B","EPOCH":"2026-03-09T13:33:21.523680","MEAN_MOTION":15.39758847,"ECCENTRICITY":0.00678111,"INCLINATION":29.0105,"RA_OF_ASC_NODE":269.6864,"ARG_OF_PERICENTER":313.7067,"MEAN_ANOMALY":45.794,"EPHEMERIS_TYPE":0,"CLASSIFICATION_TYPE":"U","NORAD_CAT_ID":58754,"ELEMENT_SET_NO":999,"REV_AT_EPOCH":12080,"BSTAR":0.0004050997,"MEAN_MOTION_DOT":0.00018271,"MEAN_MOTION_DDOT":0}]
